ONEWEB-0264             
1 48982U 21060R   24115.27566734  .00000143  00000+0  34127-3 0  9990
2 48982  87.9156  24.8236 0001751  79.8401 280.2927 13.16594733136447
ONEWEB-0266             
1 48984U 21060T   24115.29702976 -.00000012  00000+0 -66162-4 0  9996
2 48984  87.9155  24.7979 0001939  80.6989 279.4361 13.16592681136431
ONEWEB-0267             
1 48985U 21060U   24115.30812097 -.00000001  00000+0 -35537-4 0  9995
2 48985  87.9154  24.7972 0001447  84.6242 275.5054 13.16594006136444
ONEWEB-0268             
1 48986U 21060V   24115.27645056  .00000085  00000+0  18768-3 0  9997
2 48986  87.9155  24.8094 0001683  78.0736 282.0583 13.16594537136707
ONEWEB-0269             
1 48987U 21060W   24115.25746313  .00000136  00000+0  32236-3 0  9997
2 48987  87.9155  24.8373 0001888  75.4730 284.6610 13.16594531136477
ONEWEB-0270             
1 48988U 21060X   24115.27487877  .00000126  00000+0  29560-3 0  9992
2 48988  87.9153  24.8189 0001662  98.7289 261.4030 13.16594476136510
ONEWEB-0271             
1 48989U 21060Y   24115.26221077  .00000125  00000+0  29470-3 0  9999
2 48989  87.9153  24.7971 0001525  91.4688 268.6617 13.16594510136519
ONEWEB-0272             
1 48990U 21060Z   24115.28437529  .00000082  00000+0  18076-3 0  9996
2 48990  87.9157  24.8206 0001579  86.0980 274.0331 13.16595575136461
