<?xml version="1.0" encoding="UTF-8"?>
<ndm xmlns:xsi="http://www.w3.org/2001/XMLSchema-instance" xsi:noNamespaceSchemaLocation="https://sanaregistry.org/r/ndmxml_unqualified/ndmxml-2.0.0-master-2.0.xsd">
<omm id="CCSDS_OMM_VERS" version="2.0">
<header><CREATION_DATE/><ORIGINATOR/></header><body><segment><metadata><OBJECT_NAME>ONEWEB-0264</OBJECT_NAME><OBJECT_ID>2021-060R</OBJECT_ID><CENTER_NAME>EARTH</CENTER_NAME><REF_FRAME>TEME</REF_FRAME><TIME_SYSTEM>UTC</TIME_SYSTEM><MEAN_ELEMENT_THEORY>SGP4</MEAN_ELEMENT_THEORY></metadata><data><meanElements><EPOCH>2024-04-24T06:36:57.658176</EPOCH><MEAN_MOTION>13.16594733</MEAN_MOTION><ECCENTRICITY>.0001751</ECCENTRICITY><INCLINATION>87.9156</INCLINATION><RA_OF_ASC_NODE>24.8236</RA_OF_ASC_NODE><ARG_OF_PERICENTER>79.8401</ARG_OF_PERICENTER><MEAN_ANOMALY>280.2927</MEAN_ANOMALY></meanElements><tleParameters><EPHEMERIS_TYPE>0</EPHEMERIS_TYPE><CLASSIFICATION_TYPE>U</CLASSIFICATION_TYPE><NORAD_CAT_ID>48982</NORAD_CAT_ID><ELEMENT_SET_NO>999</ELEMENT_SET_NO><REV_AT_EPOCH>13644</REV_AT_EPOCH><BSTAR>.34127E-3</BSTAR><MEAN_MOTION_DOT>.143E-5</MEAN_MOTION_DOT><MEAN_MOTION_DDOT>0</MEAN_MOTION_DDOT></tleParameters></data></segment></body></omm>
<omm id="CCSDS_OMM_VERS" version="2.0">
<header><CREATION_DATE/><ORIGINATOR/></header><body><segment><metadata><OBJECT_NAME>ONEWEB-0266</OBJECT_NAME><OBJECT_ID>2021-060T</OBJECT_ID><CENTER_NAME>EARTH</CENTER_NAME><REF_FRAME>TEME</REF_FRAME><TIME_SYSTEM>UTC</TIME_SYSTEM><MEAN_ELEMENT_THEORY>SGP4</MEAN_ELEMENT_THEORY></metadata><data><meanElements><EPOCH>2024-04-24T07:07:43.371264</EPOCH><MEAN_MOTION>13.16592681</MEAN_MOTION><ECCENTRICITY>.0001939</ECCENTRICITY><INCLINATION>87.9155</INCLINATION><RA_OF_ASC_NODE>24.7979</RA_OF_ASC_NODE><ARG_OF_PERICENTER>80.6989</ARG_OF_PERICENTER><MEAN_ANOMALY>279.4361</MEAN_ANOMALY></meanElements><tleParameters><EPHEMERIS_TYPE>0</EPHEMERIS_TYPE><CLASSIFICATION_TYPE>U</CLASSIFICATION_TYPE><NORAD_CAT_ID>48984</NORAD_CAT_ID><ELEMENT_SET_NO>999</ELEMENT_SET_NO><REV_AT_EPOCH>13643</REV_AT_EPOCH><BSTAR>-.66162E-4</BSTAR><MEAN_MOTION_DOT>-.12E-6</MEAN_MOTION_DOT><MEAN_MOTION_DDOT>0</MEAN_MOTION_DDOT></tleParameters></data></segment></body></omm>
<omm id="CCSDS_OMM_VERS" version="2.0">
<header><CREATION_DATE/><ORIGINATOR/></header><body><segment><metadata><OBJECT_NAME>ONEWEB-0267</OBJECT_NAME><OBJECT_ID>2021-060U</OBJECT_ID><CENTER_NAME>EARTH</CENTER_NAME><REF_FRAME>TEME</REF_FRAME><TIME_SYSTEM>UTC</TIME_SYSTEM><MEAN_ELEMENT_THEORY>SGP4</MEAN_ELEMENT_THEORY></metadata><data><meanElements><EPOCH>2024-04-24T07:23:41.651808</EPOCH><MEAN_MOTION>13.16594006</MEAN_MOTION><ECCENTRICITY>.0001447</ECCENTRICITY><INCLINATION>87.9154</INCLINATION><RA_OF_ASC_NODE>24.7972</RA_OF_ASC_NODE><ARG_OF_PERICENTER>84.6242</ARG_OF_PERICENTER><MEAN_ANOMALY>275.5054</MEAN_ANOMALY></meanElements><tleParameters><EPHEMERIS_TYPE>0</EPHEMERIS_TYPE><CLASSIFICATION_TYPE>U</CLASSIFICATION_TYPE><NORAD_CAT_ID>48985</NORAD_CAT_ID><ELEMENT_SET_NO>999</ELEMENT_SET_NO><REV_AT_EPOCH>13644</REV_AT_EPOCH><BSTAR>-.35537E-4</BSTAR><MEAN_MOTION_DOT>-.1E-7</MEAN_MOTION_DOT><MEAN_MOTION_DDOT>0</MEAN_MOTION_DDOT></tleParameters></data></segment></body></omm>
<omm id="CCSDS_OMM_VERS" version="2.0">
<header><CREATION_DATE/><ORIGINATOR/></header><body><segment><metadata><OBJECT_NAME>ONEWEB-0268</OBJECT_NAME><OBJECT_ID>2021-060V</OBJECT_ID><CENTER_NAME>EARTH</CENTER_NAME><REF_FRAME>TEME</REF_FRAME><TIME_SYSTEM>UTC</TIME_SYSTEM><MEAN_ELEMENT_THEORY>SGP4</MEAN_ELEMENT_THEORY></metadata><data><meanElements><EPOCH>2024-04-24T06:38:05.328384</EPOCH><MEAN_MOTION>13.16594537</MEAN_MOTION><ECCENTRICITY>.0001683</ECCENTRICITY><INCLINATION>87.9155</INCLINATION><RA_OF_ASC_NODE>24.8094</RA_OF_ASC_NODE><ARG_OF_PERICENTER>78.0736</ARG_OF_PERICENTER><MEAN_ANOMALY>282.0583</MEAN_ANOMALY></meanElements><tleParameters><EPHEMERIS_TYPE>0</EPHEMERIS_TYPE><CLASSIFICATION_TYPE>U</CLASSIFICATION_TYPE><NORAD_CAT_ID>48986</NORAD_CAT_ID><ELEMENT_SET_NO>999</ELEMENT_SET_NO><REV_AT_EPOCH>13670</REV_AT_EPOCH><BSTAR>.18768E-3</BSTAR><MEAN_MOTION_DOT>.85E-6</MEAN_MOTION_DOT><MEAN_MOTION_DDOT>0</MEAN_MOTION_DDOT></tleParameters></data></segment></body></omm>
<omm id="CCSDS_OMM_VERS" version="2.0">
<header><CREATION_DATE/><ORIGINATOR/></header><body><segment><metadata><OBJECT_NAME>ONEWEB-0269</OBJECT_NAME><OBJECT_ID>2021-060W</OBJECT_ID><CENTER_NAME>EARTH</CENTER_NAME><REF_FRAME>TEME</REF_FRAME><TIME_SYSTEM>UTC</TIME_SYSTEM><MEAN_ELEMENT_THEORY>SGP4</MEAN_ELEMENT_THEORY></metadata><data><meanElements><EPOCH>2024-04-24T06:10:44.814432</EPOCH><MEAN_MOTION>13.16594531</MEAN_MOTION><ECCENTRICITY>.0001888</ECCENTRICITY><INCLINATION>87.9155</INCLINATION><RA_OF_ASC_NODE>24.8373</RA_OF_ASC_NODE><ARG_OF_PERICENTER>75.4730</ARG_OF_PERICENTER><MEAN_ANOMALY>284.6610</MEAN_ANOMALY></meanElements><tleParameters><EPHEMERIS_TYPE>0</EPHEMERIS_TYPE><CLASSIFICATION_TYPE>U</CLASSIFICATION_TYPE><NORAD_CAT_ID>48987</NORAD_CAT_ID><ELEMENT_SET_NO>999</ELEMENT_SET_NO><REV_AT_EPOCH>13647</REV_AT_EPOCH><BSTAR>.32236E-3</BSTAR><MEAN_MOTION_DOT>.136E-5</MEAN_MOTION_DOT><MEAN_MOTION_DDOT>0</MEAN_MOTION_DDOT></tleParameters></data></segment></body></omm>
<omm id="CCSDS_OMM_VERS" version="2.0">
<header><CREATION_DATE/><ORIGINATOR/></header><body><segment><metadata><OBJECT_NAME>ONEWEB-0270</OBJECT_NAME><OBJECT_ID>2021-060X</OBJECT_ID><CENTER_NAME>EARTH</CENTER_NAME><REF_FRAME>TEME</REF_FRAME><TIME_SYSTEM>UTC</TIME_SYSTEM><MEAN_ELEMENT_THEORY>SGP4</MEAN_ELEMENT_THEORY></metadata><data><meanElements><EPOCH>2024-04-24T06:35:49.525728</EPOCH><MEAN_MOTION>13.16594476</MEAN_MOTION><ECCENTRICITY>.0001662</ECCENTRICITY><INCLINATION>87.9153</INCLINATION><RA_OF_ASC_NODE>24.8189</RA_OF_ASC_NODE><ARG_OF_PERICENTER>98.7289</ARG_OF_PERICENTER><MEAN_ANOMALY>261.4030</MEAN_ANOMALY></meanElements><tleParameters><EPHEMERIS_TYPE>0</EPHEMERIS_TYPE><CLASSIFICATION_TYPE>U</CLASSIFICATION_TYPE><NORAD_CAT_ID>48988</NORAD_CAT_ID><ELEMENT_SET_NO>999</ELEMENT_SET_NO><REV_AT_EPOCH>13651</REV_AT_EPOCH><BSTAR>.2956E-3</BSTAR><MEAN_MOTION_DOT>.126E-5</MEAN_MOTION_DOT><MEAN_MOTION_DDOT>0</MEAN_MOTION_DDOT></tleParameters></data></segment></body></omm>
<omm id="CCSDS_OMM_VERS" version="2.0">
<header><CREATION_DATE/><ORIGINATOR/></header><body><segment><metadata><OBJECT_NAME>ONEWEB-0271</OBJECT_NAME><OBJECT_ID>2021-060Y</OBJECT_ID><CENTER_NAME>EARTH</CENTER_NAME><REF_FRAME>TEME</REF_FRAME><TIME_SYSTEM>UTC</TIME_SYSTEM><MEAN_ELEMENT_THEORY>SGP4</MEAN_ELEMENT_THEORY></metadata><data><meanElements><EPOCH>2024-04-24T06:17:35.010528</EPOCH><MEAN_MOTION>13.16594510</MEAN_MOTION><ECCENTRICITY>.0001525</ECCENTRICITY><INCLINATION>87.9153</INCLINATION><RA_OF_ASC_NODE>24.7971</RA_OF_ASC_NODE><ARG_OF_PERICENTER>91.4688</ARG_OF_PERICENTER><MEAN_ANOMALY>268.6617</MEAN_ANOMALY></meanElements><tleParameters><EPHEMERIS_TYPE>0</EPHEMERIS_TYPE><CLASSIFICATION_TYPE>U</CLASSIFICATION_TYPE><NORAD_CAT_ID>48989</NORAD_CAT_ID><ELEMENT_SET_NO>999</ELEMENT_SET_NO><REV_AT_EPOCH>13651</REV_AT_EPOCH><BSTAR>.2947E-3</BSTAR><MEAN_MOTION_DOT>.125E-5</MEAN_MOTION_DOT><MEAN_MOTION_DDOT>0</MEAN_MOTION_DDOT></tleParameters></data></segment></body></omm>
<omm id="CCSDS_OMM_VERS" version="2.0">
<header><CREATION_DATE/><ORIGINATOR/></header><body><segment><metadata><OBJECT_NAME>ONEWEB-0272</OBJECT_NAME><OBJECT_ID>2021-060Z</OBJECT_ID><CENTER_NAME>EARTH</CENTER_NAME><REF_FRAME>TEME</REF_FRAME><TIME_SYSTEM>UTC</TIME_SYSTEM><MEAN_ELEMENT_THEORY>SGP4</MEAN_ELEMENT_THEORY></metadata><data><meanElements><EPOCH>2024-04-24T06:49:30.025056</EPOCH><MEAN_MOTION>13.16595575</MEAN_MOTION><ECCENTRICITY>.0001579</ECCENTRICITY><INCLINATION>87.9157</INCLINATION><RA_OF_ASC_NODE>24.8206</RA_OF_ASC_NODE><ARG_OF_PERICENTER>86.0980</ARG_OF_PERICENTER><MEAN_ANOMALY>274.0331</MEAN_ANOMALY></meanElements><tleParameters><EPHEMERIS_TYPE>0</EPHEMERIS_TYPE><CLASSIFICATION_TYPE>U</CLASSIFICATION_TYPE><NORAD_CAT_ID>48990</NORAD_CAT_ID><ELEMENT_SET_NO>999</ELEMENT_SET_NO><REV_AT_EPOCH>13646</REV_AT_EPOCH><BSTAR>.18076E-3</BSTAR><MEAN_MOTION_DOT>.82E-6</MEAN_MOTION_DOT><MEAN_MOTION_DDOT>0</MEAN_MOTION_DDOT></tleParameters></data></segment></body></omm>

</ndm>
